[{"OBJECT_NAME":"GLOBAL-14","OBJECT_ID":"2021-106A","EPOCH":"2026-03-09T06:56:00.085632","MEAN_MOTION":15.45685996,"ECCENTRICITY":0.001241,"INCLINATION":42.0038,"RA_OF_ASC_NODE":162.6346,"ARG_OF_PERICENTER":44.7843,"MEAN_ANOMALY":315.3999,"EPHEMERIS_TYPE":0,"CLASSIFICATION_TYPE":"U","NORAD_CAT_ID":49469,"ELEMENT_SET_NO":999,"REV_AT_EPOCH":24264,"BSTAR":0.00056243154,"MEAN_MOTION_DOT":0.00027701,"MEAN_MOTION_DDOT":0},{"OBJECT_NAME":"OBJECT B","OBJECT_ID":"2022-158B","EPOCH":"2026-03-09T22:41:40.741152","MEAN_MOTION":15.49759097,"ECCENTRICITY":0.0010727,"INCLINATION":97.4774,"RA_OF_ASC_NODE":189.7942,"ARG_OF_PERICENTER":321.2118,"MEAN_ANOMALY":38.8362,"EPHEMERIS_TYPE":0,"CLASSIFICATION_TYPE":"U","NORAD_CAT_ID":54362,"ELEMENT_SET_NO":999,"REV_AT_EPOCH":18336,"BSTAR":0.0004299082,"MEAN_MOTION_DOT":0.00023884,"MEAN_MOTION_DDOT":0}]
